ONEWEB-0668             
1 56711U 23068B   25198.69000934  .00000020  00000+0  19869-4 0  9993
2 56711  87.9066 295.4273 0001512  90.3051 269.8253 13.16595049107766
ONEWEB-0676             
1 56712U 23068C   25199.20221101 -.00000035  00000+0 -12494-3 0  9997
2 56712  87.9056 295.3499 0002295 110.2549 249.8829 13.16594864108456
ONEWEB-0677             
1 56713U 23068D   25198.41747540  .00000111  00000+0  24063-3 0  9998
2 56713  87.9270 341.1252 0001732 105.4670 254.6654 13.20770801105615
ONEWEB-0678             
1 56714U 23068E   25198.35563748  .00000151  00000+0  36653-3 0  9990
2 56714  87.9082 325.9418 0002253  97.5205 262.6181 13.15549360105268
ONEWEB-0679             
1 56715U 23068F   25199.24732592  .00000091  00000+0  20433-3 0  9997
2 56715  87.9055 295.3334 0001637 111.4603 248.6702 13.16594708108486
ONEWEB-0680             
1 56716U 23068G   25198.29206898  .00000030  00000+0  41666-4 0  9992
2 56716  87.9262 310.7714 0001342  93.3530 266.7757 13.21825013107551
ONEWEB-0681             
1 56717U 23068H   25199.20607742  .00000007  00000+0 -15466-4 0  9992
2 56717  87.9271 310.6162 0002266 125.7375 234.3971 13.22339010107660
ONEWEB-0682             
1 56718U 23068J   25198.76204646 -.00000312  00000+0 -86163-3 0  9990
2 56718  87.9075 325.8908 0001367  98.6137 261.5149 13.15548459105482
